[{"OBJECT_NAME":"STARLINK-31568","OBJECT_ID":"2024-064Q","EPOCH":"2026-03-20T22:24:32.321088","MEAN_MOTION":15.27580904,"ECCENTRICITY":0.00011169,"INCLINATION":43.0025,"RA_OF_ASC_NODE":352.8252,"ARG_OF_PERICENTER":276.6876,"MEAN_ANOMALY":83.3849,"EPHEMERIS_TYPE":0,"CLASSIFICATION_TYPE":"U","NORAD_CAT_ID":59412,"ELEMENT_SET_NO":999,"REV_AT_EPOCH":11094,"BSTAR":0.00020525361,"MEAN_MOTION_DOT":5.39e-5,"MEAN_MOTION_DDOT":0},{"OBJECT_NAME":"STARLINK-31615","OBJECT_ID":"2024-064R","EPOCH":"2026-03-20T11:15:43.327008","MEAN_MOTION":15.27575447,"ECCENTRICITY":0.00012545,"INCLINATION":43.0044,"RA_OF_ASC_NODE":348.418,"ARG_OF_PERICENTER":267.6671,"MEAN_ANOMALY":92.4037,"EPHEMERIS_TYPE":0,"CLASSIFICATION_TYPE":"U","NORAD_CAT_ID":59413,"ELEMENT_SET_NO":999,"REV_AT_EPOCH":11095,"BSTAR":2.1031816e-5,"MEAN_MOTION_DOT":3.17e-6,"MEAN_MOTION_DDOT":0},{"OBJECT_NAME":"STARLINK-31457","OBJECT_ID":"2024-064S","EPOCH":"2026-03-20T11:19:25.524480","MEAN_MOTION":15.27579093,"ECCENTRICITY":0.00014126,"INCLINATION":43.0059,"RA_OF_ASC_NODE":348.4257,"ARG_OF_PERICENTER":251.044,"MEAN_ANOMALY":109.0259,"EPHEMERIS_TYPE":0,"CLASSIFICATION_TYPE":"U","NORAD_CAT_ID":59414,"ELEMENT_SET_NO":999,"REV_AT_EPOCH":11095,"BSTAR":1.9976689e-5,"MEAN_MOTION_DOT":2.88e-6,"MEAN_MOTION_DDOT":0},{"OBJECT_NAME":"STARLINK-31398","OBJECT_ID":"2024-064T","EPOCH":"2026-03-21T01:06:55.134144","MEAN_MOTION":15.2759485,"ECCENTRICITY":0.00013892,"INCLINATION":43.0024,"RA_OF_ASC_NODE":351.9438,"ARG_OF_PERICENTER":274.6799,"MEAN_ANOMALY":85.3894,"EPHEMERIS_TYPE":0,"CLASSIFICATION_TYPE":"U","NORAD_CAT_ID":59415,"ELEMENT_SET_NO":999,"REV_AT_EPOCH":11096,"BSTAR":0.0001040845,"MEAN_MOTION_DOT":2.604e-5,"MEAN_MOTION_DDOT":0},{"OBJECT_NAME":"STARLINK-31399","OBJECT_ID":"2024-064U","EPOCH":"2026-03-21T00:57:40.474656","MEAN_MOTION":15.27584309,"ECCENTRICITY":0.00014278,"INCLINATION":43.0015,"RA_OF_ASC_NODE":351.8921,"ARG_OF_PERICENTER":271.127,"MEAN_ANOMALY":88.9418,"EPHEMERIS_TYPE":0,"CLASSIFICATION_TYPE":"U","NORAD_CAT_ID":59416,"ELEMENT_SET_NO":999,"REV_AT_EPOCH":11096,"BSTAR":4.811363e-5,"MEAN_MOTION_DOT":1.062e-5,"MEAN_MOTION_DDOT":0},{"OBJECT_NAME":"STARLINK-31401","OBJECT_ID":"2024-064V","EPOCH":"2026-03-20T23:43:25.418496","MEAN_MOTION":15.27583364,"ECCENTRICITY":0.00014828,"INCLINATION":43.0042,"RA_OF_ASC_NODE":345.449,"ARG_OF_PERICENTER":277.5311,"MEAN_ANOMALY":82.5372,"EPHEMERIS_TYPE":0,"CLASSIFICATION_TYPE":"U","NORAD_CAT_ID":59417,"ELEMENT_SET_NO":999,"REV_AT_EPOCH":11078,"BSTAR":1.4375003e-5,"MEAN_MOTION_DOT":1.33e-6,"MEAN_MOTION_DDOT":0},{"OBJECT_NAME":"STARLINK-31414","OBJECT_ID":"2024-064W","EPOCH":"2026-03-20T19:06:58.178016","MEAN_MOTION":15.27587258,"ECCENTRICITY":0.00013845,"INCLINATION":43.0011,"RA_OF_ASC_NODE":353.5144,"ARG_OF_PERICENTER":269.7012,"MEAN_ANOMALY":90.3681,"EPHEMERIS_TYPE":0,"CLASSIFICATION_TYPE":"U","NORAD_CAT_ID":59418,"ELEMENT_SET_NO":999,"REV_AT_EPOCH":11092,"BSTAR":-2.7319259e-5,"MEAN_MOTION_DOT":-1.014e-5,"MEAN_MOTION_DDOT":0},{"OBJECT_NAME":"STARLINK-31415","OBJECT_ID":"2024-064X","EPOCH":"2026-03-21T00:26:26.335968","MEAN_MOTION":15.27586777,"ECCENTRICITY":0.00013248,"INCLINATION":43.0061,"RA_OF_ASC_NODE":352.6009,"ARG_OF_PERICENTER":272.2535,"MEAN_ANOMALY":87.8165,"EPHEMERIS_TYPE":0,"CLASSIFICATION_TYPE":"U","NORAD_CAT_ID":59419,"ELEMENT_SET_NO":999,"REV_AT_EPOCH":11095,"BSTAR":3.612089e-6,"MEAN_MOTION_DOT":-1.63e-6,"MEAN_MOTION_DDOT":0},{"OBJECT_NAME":"STARLINK-31466","OBJECT_ID":"2024-064Y","EPOCH":"2026-03-21T00:20:53.355552","MEAN_MOTION":15.27579978,"ECCENTRICITY":0.00017234,"INCLINATION":43.0066,"RA_OF_ASC_NODE":352.5688,"ARG_OF_PERICENTER":256.298,"MEAN_ANOMALY":103.768,"EPHEMERIS_TYPE":0,"CLASSIFICATION_TYPE":"U","NORAD_CAT_ID":59420,"ELEMENT_SET_NO":999,"REV_AT_EPOCH":11095,"BSTAR":1.8128414e-5,"MEAN_MOTION_DOT":2.37e-6,"MEAN_MOTION_DDOT":0},{"OBJECT_NAME":"STARLINK-11087 [DTC]","OBJECT_ID":"2024-065A","EPOCH":"2026-03-21T03:58:13.664352","MEAN_MOTION":15.69727069,"ECCENTRICITY":0.00012368,"INCLINATION":53.1604,"RA_OF_ASC_NODE":37.4472,"ARG_OF_PERICENTER":85.4159,"MEAN_ANOMALY":274.7,"EPHEMERIS_TYPE":0,"CLASSIFICATION_TYPE":"U","NORAD_CAT_ID":59421,"ELEMENT_SET_NO":999,"REV_AT_EPOCH":11331,"BSTAR":2.9200352e-5,"MEAN_MOTION_DOT":2.952e-5,"MEAN_MOTION_DDOT":0},{"OBJECT_NAME":"STARLINK-11090 [DTC]","OBJECT_ID":"2024-065B","EPOCH":"2026-03-21T03:37:02.618400","MEAN_MOTION":15.69719357,"ECCENTRICITY":0.00010885,"INCLINATION":53.1591,"RA_OF_ASC_NODE":37.3511,"ARG_OF_PERICENTER":99.6423,"MEAN_ANOMALY":260.4717,"EPHEMERIS_TYPE":0,"CLASSIFICATION_TYPE":"U","NORAD_CAT_ID":59422,"ELEMENT_SET_NO":999,"REV_AT_EPOCH":11333,"BSTAR":2.8481531e-5,"MEAN_MOTION_DOT":2.864e-5,"MEAN_MOTION_DDOT":0},{"OBJECT_NAME":"STARLINK-11093 [DTC]","OBJECT_ID":"2024-065C","EPOCH":"2026-03-21T03:44:06.689472","MEAN_MOTION":15.6972954,"ECCENTRICITY":0.00010871,"INCLINATION":53.1589,"RA_OF_ASC_NODE":37.38,"ARG_OF_PERICENTER":87.4791,"MEAN_ANOMALY":272.6352,"EPHEMERIS_TYPE":0,"CLASSIFICATION_TYPE":"U","NORAD_CAT_ID":59423,"ELEMENT_SET_NO":999,"REV_AT_EPOCH":11332,"BSTAR":4.816709e-6,"MEAN_MOTION_DOT":-5.0e-8,"MEAN_MOTION_DDOT":0},{"OBJECT_NAME":"STARLINK-11083 [DTC]","OBJECT_ID":"2024-065D","EPOCH":"2026-03-21T03:51:10.877184","MEAN_MOTION":15.69713342,"ECCENTRICITY":9.611e-5,"INCLINATION":53.1595,"RA_OF_ASC_NODE":37.4151,"ARG_OF_PERICENTER":78.7952,"MEAN_ANOMALY":281.3174,"EPHEMERIS_TYPE":0,"CLASSIFICATION_TYPE":"U","NORAD_CAT_ID":59424,"ELEMENT_SET_NO":999,"REV_AT_EPOCH":11327,"BSTAR":2.170812e-5,"MEAN_MOTION_DOT":2.042e-5,"MEAN_MOTION_DDOT":0},{"OBJECT_NAME":"STARLINK-11085 [DTC]","OBJECT_ID":"2024-065E","EPOCH":"2026-03-21T03:29:59.131392","MEAN_MOTION":15.6972193,"ECCENTRICITY":0.00012652,"INCLINATION":53.1589,"RA_OF_ASC_NODE":37.3185,"ARG_OF_PERICENTER":99.7135,"MEAN_ANOMALY":260.4025,"EPHEMERIS_TYPE":0,"CLASSIFICATION_TYPE":"U","NORAD_CAT_ID":59425,"ELEMENT_SET_NO":999,"REV_AT_EPOCH":11327,"BSTAR":3.1472305e-5,"MEAN_MOTION_DOT":3.227e-5,"MEAN_MOTION_DDOT":0},{"OBJECT_NAME":"STARLINK-11089 [DTC]","OBJECT_ID":"2024-065F","EPOCH":"2026-03-21T04:05:18.523392","MEAN_MOTION":15.69735289,"ECCENTRICITY":0.00010921,"INCLINATION":53.1584,"RA_OF_ASC_NODE":37.4976,"ARG_OF_PERICENTER":82.9697,"MEAN_ANOMALY":277.1445,"EPHEMERIS_TYPE":0,"CLASSIFICATION_TYPE":"U","NORAD_CAT_ID":59426,"ELEMENT_SET_NO":999,"REV_AT_EPOCH":11332,"BSTAR":9.2805312e-5,"MEAN_MOTION_DOT":0.00010681,"MEAN_MOTION_DDOT":0},{"OBJECT_NAME":"STARLINK-31757","OBJECT_ID":"2024-065G","EPOCH":"2026-03-21T03:26:44.282112","MEAN_MOTION":15.30199977,"ECCENTRICITY":8.999e-5,"INCLINATION":53.1613,"RA_OF_ASC_NODE":228.4408,"ARG_OF_PERICENTER":81.2939,"MEAN_ANOMALY":278.8164,"EPHEMERIS_TYPE":0,"CLASSIFICATION_TYPE":"U","NORAD_CAT_ID":59427,"ELEMENT_SET_NO":999,"REV_AT_EPOCH":11068,"BSTAR":4.5951182e-5,"MEAN_MOTION_DOT":1.002e-5,"MEAN_MOTION_DDOT":0}]
