STARLINK-31568          
1 59412U 24064Q   26079.93370742  .00005390  00000+0  20525-3 0  9999
2 59412  43.0025 352.8252 0001116 276.6876  83.3849 15.27580904110946
STARLINK-31615          
1 59413U 24064R   26079.46925147  .00000317  00000+0  21032-4 0  9992
2 59413  43.0044 348.4180 0001254 267.6671  92.4037 15.27575447110952
STARLINK-31457          
1 59414U 24064S   26079.47182320  .00000288  00000+0  19977-4 0  9994
2 59414  43.0059 348.4257 0001412 251.0440 109.0259 15.27579093110953
STARLINK-31398          
1 59415U 24064T   26080.04647146  .00002604  00000+0  10408-3 0  9995
2 59415  43.0024 351.9438 0001389 274.6799  85.3894 15.27594850110967
STARLINK-31399          
1 59416U 24064U   26080.04005179  .00001062  00000+0  48114-4 0  9993
2 59416  43.0015 351.8921 0001427 271.1270  88.9418 15.27584309110962
STARLINK-31401          
1 59417U 24064V   26079.98848864  .00000133  00000+0  14375-4 0  9991
2 59417  43.0042 345.4490 0001482 277.5311  82.5372 15.27583364110789
STARLINK-31414          
1 59418U 24064W   26079.79650669 -.00001014  00000+0 -27319-4 0  9998
2 59418  43.0011 353.5144 0001384 269.7012  90.3681 15.27587258110926
STARLINK-31415          
1 59419U 24064X   26080.01836037 -.00000163  00000+0  36121-5 0  9996
2 59419  43.0061 352.6009 0001324 272.2535  87.8165 15.27586777110951
STARLINK-31466          
1 59420U 24064Y   26080.01450643  .00000237  00000+0  18128-4 0  9990
2 59420  43.0066 352.5688 0001723 256.2980 103.7680 15.27579978110954
STARLINK-11087 [DTC]    
1 59421U 24065A   26080.16543593  .00002952  00000+0  29200-4 0  9994
2 59421  53.1604  37.4472 0001236  85.4159 274.7000 15.69727069113314
STARLINK-11090 [DTC]    
1 59422U 24065B   26080.15072475  .00002864  00000+0  28482-4 0  9993
2 59422  53.1591  37.3511 0001088  99.6423 260.4717 15.69719357113339
STARLINK-11093 [DTC]    
1 59423U 24065C   26080.15563298 -.00000005  00000+0  48167-5 0  9991
2 59423  53.1589  37.3800 0001087  87.4791 272.6352 15.69729540113324
STARLINK-11083 [DTC]    
1 59424U 24065D   26080.16054256  .00002042  00000+0  21708-4 0  9995
2 59424  53.1595  37.4151 0000961  78.7952 281.3174 15.69713342113270
STARLINK-11085 [DTC]    
1 59425U 24065E   26080.14582328  .00003227  00000+0  31472-4 0  9995
2 59425  53.1589  37.3185 0001265  99.7135 260.4025 15.69721930113279
STARLINK-11089 [DTC]    
1 59426U 24065F   26080.17035328  .00010681  00000+0  92805-4 0  9991
2 59426  53.1584  37.4976 0001092  82.9697 277.1445 15.69735289113328
STARLINK-31757          
1 59427U 24065G   26080.14356808  .00001002  00000+0  45951-4 0  9995
2 59427  53.1613 228.4408 0000899  81.2939 278.8164 15.30199977110687
